NORAD_CAT_ID,OBJECT_NAME,OBJECT_TYPE,EPOCH,MEAN_MOTION,ECCENTRICITY,INCLINATION,RA_OF_ASC_NODE,ARG_OF_PERICENTER,MEAN_ANOMALY,BSTAR,MEAN_MOTION_DOT,MEAN_MOTION_DDOT,TLE_LINE0,TLE_LINE1,TLE_LINE2,SEMIMAJOR_AXIS,PERIOD,APOGEE,PERIGEE,DECAYED
50820.0,STARLINK-3339,PAYLOAD,2022-02-03 13:12:30,15.7323991,0.000221,53.2151,62.1884,29.9522,330.1624,0.00032459,0.0004526,0.0,0 STARLINK-3339,1 50820U 22001T   22034.55035082  .00045260  00000-0  32459-3 0  9992,2 50820  53.2151  62.1884 0002210  29.9522 330.1624 15.73239910  5663,6727.781,91.531,351.1330000000001,348.16,0.0
50820.0,STARLINK-3339,PAYLOAD,2022-02-04 05:58:46,15.73216105,0.0003103,53.2149,58.729,8.8054,351.302,9.6454e-05,0.00012947,0.0,0 STARLINK-3339,1 50820U 22001T   22035.24915426  .00012947  00000-0  96454-4 0  9990,2 50820  53.2149  58.7290 0003103   8.8054 351.3020 15.73216105  5778,6727.849,91.532,351.802,347.62699999999984,0.0
50820.0,STARLINK-3339,PAYLOAD,2022-02-04 07:30:15,15.7321522,0.000299,53.2152,58.4148,11.8035,348.3055,9.4617e-05,0.00012687,0.0,0 STARLINK-3339,1 50820U 22001T   22035.31268176  .00012687  00000-0  94617-4 0  9991,2 50820  53.2152  58.4148 0002990  11.8035 348.3055 15.73215220  4519,6727.852,91.532,351.728,347.705,0.0
50820.0,STARLINK-3339,PAYLOAD,2022-02-04 18:10:37,15.73225271,0.0002465,53.216,56.2131,16.9611,343.1491,0.00015351,0.00021002,0.0,0 STARLINK-3339,1 50820U 22001T   22035.75737269  .00021002  00000-0  15351-3 0  9991,2 50820  53.2160  56.2131 0002465  16.9611 343.1491 15.73225271  4580,6727.823,91.532,351.347,348.03,0.0
50820.0,STARLINK-3339,PAYLOAD,2022-02-05 06:00:00,15.73234172,0.0002124,53.2159,53.7771,23.1702,248.578,-0.00040864,-0.00057669,0.0,0 STARLINK-3339,1 50820U 22001T   22036.25001157 -.00057669  00000-0 -40864-3 0  9994,2 50820  53.2159  53.7771 0002124  23.1702 248.5780 15.73234172  5932,6727.7980000000025,91.531,351.092,348.2340000000001,0.0
50820.0,STARLINK-3339,PAYLOAD,2022-02-05 12:28:23,15.73220598,0.0002057,53.2162,52.442,23.1401,336.9711,0.00012057,0.00016349,0.0,0 STARLINK-3339,1 50820U 22001T   22036.51971113  .00016349  00000-0  12057-3 0  9992,2 50820  53.2162  52.4420 0002057  23.1401 336.9711 15.73220598  4701,6727.8359999999975,91.532,351.085,348.3180000000001,0.0
50820.0,STARLINK-3339,PAYLOAD,2022-02-05 22:00:01,15.73217607,0.0002074,53.2163,50.4765,23.2786,66.3977,-0.00018969,-0.00027179,0.0,0 STARLINK-3339,1 50820U 22001T   22036.91668981 -.00027179  00000-0 -18969-3 0  9995,2 50820  53.2163  50.4765 0002074  23.2786  66.3977 15.73217607  6042,6727.845,91.532,351.105,348.315,0.0
50820.0,STARLINK-3339,PAYLOAD,2022-02-06 06:00:00,15.73205372,0.0002245,53.2163,48.8285,22.2561,156.2838,-0.001083,-0.00149992,0.0,0 STARLINK-3339,1 50820U 22001T   22037.25001157 -.00149992  00000-0 -10830-2 0  9995,2 50820  53.2163  48.8285 0002245  22.2561 156.2838 15.73205372  6096,6727.88,91.533,351.255,348.2340000000001,0.0
50820.0,STARLINK-3339,PAYLOAD,2022-02-06 14:00:01,15.73084498,0.0002266,53.2158,47.1793,17.6539,249.8168,0.00027755,0.0003832,0.0,0 STARLINK-3339,1 50820U 22001T   22037.58335648  .00038320  00000-0  27755-3 0  9991,2 50820  53.2158  47.1793 0002266  17.6539 249.8168 15.73084498  6147,6728.224,91.54,351.61400000000015,348.565,0.0
50820.0,STARLINK-3339,PAYLOAD,2022-02-06 22:00:00,15.73054673,0.0002081,53.216,45.5284,25.5943,330.6188,0.0018678,0.00268391,0.0,0 STARLINK-3339,1 50820U 22001T   22037.91667824  .00268391  00000-0  18678-2 0  9998,2 50820  53.2160  45.5284 0002081  25.5943 330.6188 15.73054673  3699,6728.31,91.542,351.575,348.774,0.0
50820.0,STARLINK-3339,PAYLOAD,2022-02-07 07:09:54,15.73183281,0.0002369,53.2165,43.639,19.9437,340.1675,0.00036796,0.00051303,0.0,0 STARLINK-3339,1 50820U 22001T   22038.29854217  .00051303  00000-0  36796-3 0  9999,2 50820  53.2165  43.6390 0002369  19.9437 340.1675 15.73183281  6255,6727.943,91.534,351.402,348.214,0.0
50820.0,STARLINK-3339,PAYLOAD,2022-02-07 14:00:01,15.73279922,0.0002264,53.2164,42.2313,22.84,151.2211,-0.00045151,-0.00063734,0.0,0 STARLINK-3339,1 50820U 22001T   22038.58334491 -.00063734  00000-0 -45151-3 0  9996,2 50820  53.2164  42.2313 0002264  22.8400 151.2211 15.73279922  3680,6727.667,91.529,351.055,348.009,0.0
50820.0,STARLINK-3339,PAYLOAD,2022-02-07 16:00:00,15.73292818,0.0002181,53.2166,41.8182,22.3722,263.9353,-0.00076886,-0.00107596,0.0,0 STARLINK-3339,1 50820U 22001T   22038.66667824 -.00107596  00000-0 -76886-3 0  9998,2 50820  53.2166  41.8182 0002181  22.3722 263.9353 15.73292818  6311,6727.630999999999,91.528,350.963,348.028,0.0
50820.0,STARLINK-3339,PAYLOAD,2022-02-07 22:00:00,15.7318115,0.0002057,53.2167,40.5798,22.6244,240.442,0.00064522,0.00090847,0.0,0 STARLINK-3339,1 50820U 22001T   22038.91667824  .00090847  00000-0  64522-3 0  9998,2 50820  53.2167  40.5798 0002057  22.6244 240.4420 15.73181150  3706,6727.949000000001,91.534,351.1980000000001,348.43,0.0
50820.0,STARLINK-3339,PAYLOAD,2022-02-08 06:00:00,15.73269356,0.000224,53.2166,38.9321,20.2741,331.7293,-0.00051072,-0.00071909,0.0,0 STARLINK-3339,1 50820U 22001T   22039.25001157 -.00071909  00000-0 -51072-3 0  9993,2 50820  53.2166  38.9321 0002240  20.2741 331.7293 15.73269356  6405,6727.696999999999,91.529,351.069,348.055,0.0
50820.0,STARLINK-3339,PAYLOAD,2022-02-08 14:00:01,15.73219058,0.0002246,53.2161,37.2824,18.3372,62.6479,0.00017341,0.00023806,0.0,0 STARLINK-3339,1 50820U 22001T   22039.58334491  .00023806  00000-0  17341-3 0  9991,2 50820  53.2161  37.2824 0002246  18.3372  62.6479 15.73219058  3704,6727.840999999999,91.532,351.217,348.195,0.0
50820.0,STARLINK-3339,PAYLOAD,2022-02-08 20:00:01,15.73237073,0.0002035,53.2163,36.0438,21.2521,36.519,-4.9085e-05,-7.516e-05,0.0,0 STARLINK-3339,1 50820U 22001T   22039.83335648 -.00007516  00000-0 -49085-4 0  9997,2 50820  53.2163  36.0438 0002035  21.2521  36.5190 15.73237073  6507,6727.7890000000025,91.531,351.024,348.285,0.0
50820.0,STARLINK-3339,PAYLOAD,2022-02-08 22:00:01,15.73247785,0.0002006,53.2162,35.6312,23.8905,146.12,-0.00023823,-0.00033991,0.0,0 STARLINK-3339,1 50820U 22001T   22039.91668981 -.00033991  00000-0 -23823-3 0  9992,2 50820  53.2162  35.6312 0002006  23.8905 146.1200 15.73247785  3692,6727.759,91.53,350.974,348.274,0.0
50820.0,STARLINK-3339,PAYLOAD,2022-02-09 14:00:01,15.73196797,0.0002237,53.2166,32.3339,21.0111,326.8305,0.00012702,0.00017241,0.0,0 STARLINK-3339,1 50820U 22001T   22040.58334491  .00017241  00000-0  12702-3 0  9995,2 50820  53.2166  32.3339 0002237  21.0111 326.8305 15.73196797  6618,6727.904,91.533,351.274,348.264,0.0
50820.0,STARLINK-3339,PAYLOAD,2022-02-10 06:00:00,15.73204111,0.000242,53.2167,29.0351,29.5703,136.1369,-0.00037787,-0.00053335,0.0,0 STARLINK-3339,1 50820U 22001T   22041.25001157 -.00053335  00000-0 -37787-3 0  9996,2 50820  53.2167  29.0351 0002420  29.5703 136.1369 15.73204111  6724,6727.8830000000025,91.533,351.37699999999984,348.12,0.0
50820.0,STARLINK-3339,PAYLOAD,2022-02-10 14:00:01,15.7318439,0.0002284,53.2162,27.385,26.5049,228.189,-3.1009e-05,-4.968e-05,0.0,0 STARLINK-3339,1 50820U 22001T   22041.58335648 -.00004968  00000-0 -31009-4 0  9997,2 50820  53.2162  27.3850 0002284  26.5049 228.1890 15.73184390  6774,6727.94,91.534,351.341,348.26800000000014,0.0
50820.0,STARLINK-3339,PAYLOAD,2022-02-10 22:00:00,15.7317747,0.0002074,53.2164,25.7343,31.3195,312.2154,0.00060718,0.00085385,0.0,0 STARLINK-3339,1 50820U 22001T   22041.91667824  .00085385  00000-0  60718-3 0  9996,2 50820  53.2164  25.7343 0002074  31.3195 312.2154 15.73177470  3684,6727.959,91.534,351.22,348.42900000000014,0.0
50820.0,STARLINK-3339,PAYLOAD,2022-02-11 05:41:37,15.73231192,0.0002302,53.2171,24.1483,29.0699,331.0449,0.00017104,0.00023484,0.0,0 STARLINK-3339,1 50820U 22001T   22042.23723710  .00023484  00000-0  17104-3 0  9992,2 50820  53.2171  24.1483 0002302  29.0699 331.0449 15.73231192  6879,6727.806,91.531,351.22,348.12300000000016,0.0
50820.0,STARLINK-3339,PAYLOAD,2022-02-11 14:00:01,15.73293395,0.0002066,53.2166,22.4364,22.4987,139.0097,-0.00038797,-0.00054939,0.0,0 STARLINK-3339,1 50820U 22001T   22042.58334491 -.00054939  00000-0 -38797-3 0  9996,2 50820  53.2166  22.4364 0002066  22.4987 139.0097 15.73293395  6931,6727.629,91.528,350.884,348.10400000000016,0.0
50820.0,STARLINK-3339,PAYLOAD,2022-02-11 22:00:01,15.7324226,0.0001855,53.2169,20.7852,21.6535,228.928,0.00026256,0.00036456,0.0,0 STARLINK-3339,1 50820U 22001T   22042.91668981  .00036456  00000-0  26256-3 0  9996,2 50820  53.2169  20.7852 0001855  21.6535 228.9280 15.73242260  3701,6727.775,91.531,350.88800000000015,348.392,0.0
50820.0,STARLINK-3339,PAYLOAD,2022-02-12 04:33:46,15.73250617,0.0002021,53.2168,19.431,28.7537,331.3595,3.2787e-05,3.992e-05,0.0,0 STARLINK-3339,1 50820U 22001T   22043.19012466  .00003992  00000-0  32787-4 0  9994,2 50820  53.2168  19.4310 0002021  28.7537 331.3595 15.73250617  7022,6727.751,91.53,350.976,348.256,0.0
50820.0,STARLINK-3339,PAYLOAD,2022-02-12 14:00:01,15.73158796,0.0002006,53.2163,17.4872,19.625,48.8071,-0.00061376,-0.00085743,0.0,0 STARLINK-3339,1 50820U 22001T   22043.58334491 -.00085743  00000-0 -61376-3 0  9993,2 50820  53.2163  17.4872 0002006  19.6250  48.8071 15.73158796  3707,6728.013000000001,91.536,351.227,348.528,0.0
50820.0,STARLINK-3339,PAYLOAD,2022-02-12 22:00:00,15.7307802,0.0001845,53.2166,15.8369,23.2861,133.9581,0.00074937,0.00105326,0.0,0 STARLINK-3339,1 50820U 22001T   22043.91667824  .00105326  00000-0  74937-3 0  9994,2 50820  53.2166  15.8369 0001845  23.2861 133.9581 15.73078020  3693,6728.243,91.54,351.349,348.867,0.0
50820.0,STARLINK-3339,PAYLOAD,2022-02-13 04:00:01,15.73158812,0.0002088,53.2165,14.6015,23.5177,110.4027,4.9993e-05,6.389e-05,0.0,0 STARLINK-3339,1 50820U 22001T   22044.16668981  .00006389  00000-0  49993-4 0  9991,2 50820  53.2165  14.6015 0002088  23.5177 110.4027 15.73158812  7181,6728.013000000001,91.536,351.282,348.473,0.0
